event_id,longitude,latitude,datetime,street,direction,type,agency,city,geom,neighborhood,zipcode,day_of_week,city_id
15,-118.740245,34.143058,2017-04-08 10:22:00,Us101 E / Chesebro Rd,130,1125-Traffic Hazard,CHP-LA,LAFSP,0101000020E6100000C381902C60AF5DC031B77BB94F124140,agoura-hills,91301,6,0
3137,-118.193097,33.875589,2017-04-09 17:54:00,SR91 W / I710,130,1125-Traffic Hazard,CHP-LA,South LA,0101000020E61000002AFD84B35B8C5DC061DEE34C13F04040,long-beach,90805,0,1
4717,-118.300363,34.036919,2017-04-09 00:04:00,I10 E / S Normandie Ave,130,1182-Trfc Collision-No Inj,CHP-LA,Central LA,0101000020E61000006B7BBB2539935DC0EECC04C3B9044140,adams-normandie,90007,0,2
4538,-118.300363,34.036919,2017-04-08 22:51:00,I10 E / S Normandie Ave,130,1179-Trfc Collision-1141 Enrt,CHP-LA,Central LA,0101000020E61000006B7BBB2539935DC0EECC04C3B9044140,adams-normandie,90007,6,2
3636,-118.122988,34.071467,2017-04-05 20:19:00,I10 E / Garfield Ave,130,1182-Trfc Collision-No Inj,CHP-LA,East LA,0101000020E61000003A730F09DF875DC022DFA5D425094140,alhambra,91803,3,3
4381,-118.23574,34.069431,2017-04-05 23:51:00,Sr110 N / Hill St,130,1125-Traffic Hazard,CHP-LA,Central LA,0101000020E6100000FA96395D168F5DC00F2A711DE3084140,elysian-park,90012,3,2
1626,-118.325681,34.466958,2017-04-07 11:15:00,Sr14 S / Agua Dulce Canyon Rd Ofr,130,1125-Traffic Hazard,CHP-LA,Newhall,0101000020E61000006EFB1EF5D7945DC0834D9D47C53B4140,agua-dulce,91390,5,4
1931,-118.346241,34.087904,2017-04-03 12:42:00,Dmv-west Hollywood,130,1182-Trfc Collision-No Inj,CHP-LA,Central LA,0101000020E610000032E202D028965DC002983270400B4140,fairfax,90046,1,2
231,-118.137016,33.877084,2017-04-06 16:55:00,Sr91 E / Eo Lakewood Blvd,130,1183-Trfc Collision-Unkn Inj,CHP-LA,LAFSP,0101000020E6100000D6C1C1DEC4885DC025ECDB4944F04040,bellflower,90706,4,0
3130,-118.133952,33.877011,2017-04-09 17:52:00,Sr91 E / Clark Ave,130,1125-Traffic Hazard,CHP-LA,Santa Fe Springs,0101000020E6100000F7CE68AB92885DC0BA9D7DE541F04040,bellflower,90706,0,5
1806,-118.316695,34.101678,2017-04-03 12:12:00,Us101 S / Hollywood Blvd,130,1183-Trfc Collision-Unkn Inj,CHP-LA,Central LA,0101000020E6100000A1F31ABB44945DC0815CE2C8030D4140,hollywood,90028,1,2
631,-118.211756,33.846728,2017-04-04 06:46:00,E Del Amo Blvd / S Santa Fe Ave,130,1125-Traffic Hazard,CHP-LA,South LA,0101000020E6100000D6AE09698D8D5DC0C34D469561EC4040,rancho-dominguez,90221,2,1
664,-118.475191,34.088608,2017-04-05 07:03:00,I405 N / Getty Center Dr,130,1125-Traffic Hazard,CHP-LA,West LA,0101000020E6100000A0168387699E5DC0FD14C781570B4140,bel-air,90049,3,6
1765,-118.475404,34.088594,2017-04-03 12:03:00,La405349 I405 S / So Getty Center Dr,130,1179-Trfc Collision-1141 Enrt,CHP-LA,West LA,0101000020E6100000CE18E6046D9E5DC0984F560C570B4140,bel-air,90049,1,6
2903,-118.167854,33.968167,2017-04-06 17:26:00,I710 S / Florence Ave,130,20002-Hit and Run No Injuries,CHP-LA,East LA,0101000020E61000002E20B41EBE8A5DC0810871E5ECFB4040,bell,90201,4,3
738,-118.33807,34.034924,2017-04-04 07:23:00,I10 W / CRENSHAW BLVD ONR,130,1125-Traffic Hazard,CHP-LA,Central LA,0101000020E61000008F705AF0A2955DC039ECBE6378044140,mid-city,90016,2,2
2794,-118.28625,34.03677,2017-04-03 15:56:00,I10 E / I10 E I110 S Con,130,1182-Trfc Collision-No Inj,CHP-LA,Central LA,0101000020E6100000B81E85EB51925DC0AABC1DE1B4044140,university-park,90007,1,2
2997,-118.418366,34.012283,2017-04-07 16:24:00,I405 N / Venice Blvd,130,1125-Traffic Hazard,CHP-LA,West LA,0101000020E610000088F02F82C69A5DC0FDA5457D92014140,palms,90066,5,6
112,-118.42867,34.024975,2017-04-05 10:43:00,I405 S / I10 W I405 S Con,130,1125-Traffic Hazard,CHP-LA,LAFSP,0101000020E6100000AFB14B546F9B5DC0DA1B7C6132034140,palms,90066,3,0
2989,-118.391136,34.030837,2017-04-07 16:25:00,I10 W / S Robertson Blvd,130,1182-Trfc Collision-No Inj,CHP-LA,West LA,0101000020E610000074124A5F08995DC0DD408177F2034140,palms,90034,5,6
1724,-118.418366,34.012283,2017-04-03 12:13:00,I405 N / Venice Blvd,130,1183-Trfc Collision-Unkn Inj,CHP-LA,West LA,0101000020E610000088F02F82C69A5DC0FDA5457D92014140,palms,90066,1,6
2564,-118.430113,34.026762,2017-04-03 15:28:00,I405 S / National Blvd,130,1183-Trfc Collision-Unkn Inj,CHP-LA,West LA,0101000020E61000006725ADF8869B5DC04563EDEF6C034140,palms,90066,1,6
2585,-117.992976,34.047356,2017-04-07 15:02:00,Valley Blvd / Vineland Ave,130,1125-Traffic Hazard,CHP-LA,Baldwin Park,0101000020E6100000A06D35EB8C7F5DC07BA2EBC20F064140,avocado-heights,91746,5,7
699,-118.006003,34.050982,2017-04-07 06:50:00,I605 N / Valley Blvd Ofr,130,FIRE-Report of Fire,CHP-LA,East LA,0101000020E6100000632B685A62805DC0A357039486064140,avocado-heights,91746,5,3
1199,-118.027414,34.033961,2017-04-07 09:20:00,Sr60 E / I605,130,MZP-Assist CT with Maintenance,CHP-LA,East LA,0101000020E6100000F65CA626C1815DC0732B84D558044140,avocado-heights,90601,5,3
2071,-118.02934,34.032453,2017-04-07 12:52:00,La605175 I605 S / So Sr60 E,130,1125-Traffic Hazard,CHP-LA,Santa Fe Springs,0101000020E6100000BC1DE1B4E0815DC01CD47E6B27044140,avocado-heights,90601,5,5
3218,-118.2252,33.974211,2017-04-05 18:21:00,E Florence Ave / Pacific Blvd,130,1183-Trfc Collision-Unkn Inj,CHP-LA,South LA,0101000020E6100000CAC342AD698E5DC0A43330F2B2FC4040,walnut-park,90255,3,1
253,-117.712788,34.081741,2017-04-07 15:31:00,I10 E Eo / Indian Hill Blvd Lacc,130,1183-Trfc Collision-Unkn Inj,CHP-Inland,San Bernardino FSP,0101000020E6100000CC3E8F519E6D5DC005DF347D760A4140,claremont,91711,5,8
995,-117.715678,34.081901,2017-04-07 08:20:00,I10 W / Indian Hill Blvd,130,1125-Traffic Hazard,CHP-LA,Baldwin Park,0101000020E6100000DE1D19ABCD6D5DC03E4162BB7B0A4140,claremont,91711,5,7
3520,-117.736374,34.120255,2017-04-09 19:16:00,I210 E / N Towne Ave,130,1125-Traffic Hazard,CHP-LA,Baldwin Park,0101000020E6100000FBE769C0206F5DC01A170E84640F4140,claremont,91711,0,7
90,-118.366795,34.221944,2017-04-07 10:30:00,I5 S / Sunland Blvd,130,1179-Trfc Collision-1141Enrt,CHP-LA,LAFSP,0101000020E61000008655BC9179975DC08FC536A9681C4140,sun-valley,91352,5,0
303,-118.36647,34.222111,2017-04-07 02:29:00,I5 N / Sunland Blvd,130,1125-Traffic Hazard,CHP-LA,Altadena,0101000020E6100000C43D963E74975DC07A8A1C226E1C4140,sun-valley,91352,5,9
1659,-118.366795,34.221944,2017-04-05 12:21:00,I5 S / Sunland Blvd,130,1125-Traffic Hazard,CHP-LA,Altadena,0101000020E61000008655BC9179975DC08FC536A9681C4140,sun-valley,91352,3,9
450,-118.359705,34.221567,2017-04-06 05:17:00,I5 N / Glenoaks Blvd,130,1179-Trfc Collision-1141 Enrt,CHP-LA,Altadena,0101000020E61000004BCD1E6805975DC0B96FB54E5C1C4140,sun-valley,91352,4,9
1028,-118.493509,34.377539,2017-04-07 08:34:00,Sr14 N / Placerita Canyon Rd,130,1125-Traffic Hazard,CHP-LA,Newhall,0101000020E610000007D2C5A6959F5DC076FBAC3253304140,tujunga-canyons,91321,5,4
945,-118.145764,34.183089,2017-04-09 06:42:00,E Woodbury Rd / Marengo Ave,130,1179-Trfc Collision-1141 Enrt,CHP-LA,Altadena,0101000020E6100000C83B873254895DC0F1A0D9756F174140,altadena,91001,0,9
3985,-118.333579,34.035131,2017-04-05 21:52:00,I10 W / Crenshaw Blvd,130,1125-Traffic Hazard,CHP-LA,Central LA,0101000020E610000079E8BB5B59955DC0B309302C7F044140,arlington-heights,90018,3,2
1600,-118.291583,33.928504,2017-04-03 11:20:00,I105 E / S Vermont Ave,130,BREAK-Traffic Break,CHP-LA,West LA,0101000020E61000007444BE4BA9925DC0431A1538D9F64040,athens,90044,1,6
2747,-118.082241,33.876536,2017-04-07 15:31:00,Sr91 W / Pioneer Blvd,130,1182-Trfc Collision-No Inj,CHP-LA,Santa Fe Springs,0101000020E6100000FB58C16F43855DC022E2E65432F04040,artesia,90701,5,5
2854,-117.907551,34.117031,2017-04-06 17:19:00,328 S Azusa Ave,130,20002-Hit and Run No Injuries,CHP-LA,Baldwin Park,0101000020E6100000EF1CCA50157A5DC020CF2EDFFA0E4140,azusa,91702,4,7
4737,-117.962205,34.070022,2017-04-08 23:43:00,I10 E / Puente Ave,130,1125-Traffic Hazard,CHP-LA,Baldwin Park,0101000020E61000000EC347C4947D5DC010001C7BF6084140,baldwin-park,91706,6,7
294,-117.962052,34.070211,2017-04-03 02:50:00,I10 W / Puente Ave,130,1125-Traffic Hazard,CHP-LA,Baldwin Park,0101000020E61000004A438D42927D5DC0E4688EACFC084140,baldwin-park,91706,1,7
2135,-118.000058,34.065178,2017-04-07 13:08:00,I10 W / I605,130,1125-Traffic Hazard,CHP-LA,Baldwin Park,0101000020E61000009B0645F300805DC09835B1C057084140,baldwin-park,91706,5,7
960,-118.000227,34.065158,2017-04-07 08:11:00,I605 S / I10,130,1182-Trfc Collision-No Inj,CHP-LA,Baldwin Park,0101000020E6100000E0641BB803805DC05189EB1857084140,baldwin-park,91706,5,7
1116,-118.111731,33.914118,2017-04-06 10:06:00,I605 N I105 W C,130,1125-Traffic Hazard,CHP-LA,Santa Fe Springs,0101000020E6100000C3BCC79926875DC0AC5791D101F54040,downey,90242,4,5
1262,-118.098356,33.938067,2017-04-07 09:37:00,I605 S / Florence Ave,130,MZP-Assist CT with Maintenance,CHP-LA,Santa Fe Springs,0101000020E610000063D7F6764B865DC0793A579412F84040,downey,90240,5,5
4862,-118.120211,33.964275,2017-04-08 00:00:00,I5 S / Paramount Blvd,130,CLOSURE of a Road,CHP-LA,Santa Fe Springs,0101000020E6100000A6677A89B1875DC0DAACFA5C6DFB4040,downey,90240,6,5
3414,-118.112271,33.913638,2017-04-04 19:00:00,I105 E I605 Con / I105 E I605 N Con,130,1182-Trfc Collision-No Inj,CHP-LA,Santa Fe Springs,0101000020E61000008252B4722F875DC001310917F2F44040,downey,90242,2,5
1321,-118.111836,33.957828,2017-04-09 09:57:00,I5 S / Lakewood Blvd,130,20002-Hit and Run No Injuries,CHP-LA,Santa Fe Springs,0101000020E6100000FEA02E5228875DC0B8989F1B9AFA4040,downey,90240,0,5
1833,-118.094083,33.937231,2017-04-07 11:58:00,La00565 I5 S / So I605 S,130,1125-Traffic Hazard,CHP-LA,Santa Fe Springs,0101000020E61000000407B47405865DC010E6762FF7F74040,downey,90240,5,5
24,-118.220152,34.037395,2017-04-05 00:09:00,I5 S / I10 W,130,1125-Traffic Hazard,CHP-LA,Central LA,0101000020E610000089096AF8168E5DC05804FF5BC9044140,boyle-heights,90023,3,2
3792,-118.206446,34.025591,2017-04-06 21:07:00,I5 S / Us101 S,130,1182-Trfc Collision-No Inj,CHP-LA,Central LA,0101000020E6100000F6984869368D5DC03509DE9046034140,boyle-heights,90023,4,2
854,-118.202994,34.054506,2017-04-06 08:15:00,I10 W / Soto St,130,1182-Trfc Collision-No Inj,CHP-LA,Central LA,0101000020E610000030D28BDAFD8C5DC0C7B7770DFA064140,boyle-heights,90033,4,2
2969,-118.214869,34.060233,2017-04-04 17:16:00,I5 N / N Mission Rd,130,1182-Trfc Collision-No Inj,CHP-LA,Central LA,0101000020E610000026FBE769C08D5DC0EB9106B7B5074140,boyle-heights,90033,2,2
2966,-118.202994,34.054506,2017-04-04 17:16:00,I10 W / Soto St,130,1183-Trfc Collision-Unkn Inj,CHP-LA,Central LA,0101000020E610000030D28BDAFD8C5DC0C7B7770DFA064140,boyle-heights,90033,2,2
2556,-118.218753,34.029538,2017-04-06 16:25:00,Sr60 W / S Soto St,130,1182-Trfc Collision-No Inj,CHP-LA,Central LA,0101000020E6100000B939950C008E5DC0A0FEB3E6C7034140,boyle-heights,90023,4,2
3699,-118.226207,34.052699,2017-04-08 19:19:00,I10 W / Us 101 N Con (15-21),130,1125-Traffic Hazard,CHP-LA,Central LA,0101000020E610000015C8EC2C7A8E5DC015C440D7BE064140,boyle-heights,90033,6,2
1682,-118.478405,34.122631,2017-04-08 10:16:00,I405 N / Skirball Center Dr,130,1125-Traffic Hazard,CHP-LA,West LA,0101000020E61000008C4F01309E9E5DC0E63C635FB20F4140,brentwood,90049,6,6
224,-118.2795,33.945537,2017-04-06 15:41:00,I110 N / W Century Blvd,130,1182-Trfc Collision-No Inj,CHP-LA,LAFSP,0101000020E6100000D9CEF753E3915DC038143E5B07F94040,broadway-manchester,90003,4,0
2799,-118.325732,34.153661,2017-04-05 16:53:00,Sr134 E / S Buena Vista Dr,130,20002-Hit and Run No Injuries,CHP-LA,Altadena,0101000020E6100000AFD007CBD8945DC0D8D5E429AB134140,burbank,90068,3,9
1849,-118.337797,34.199014,2017-04-08 11:14:00,I5 N / N Buena Vista St,130,1125-Traffic Hazard,CHP-LA,Altadena,0101000020E6100000F6EB4E779E955DC01BB96E4A79194140,burbank,91504,6,9
674,-118.697862,34.148314,2017-04-04 07:00:00,US101 E / LAS VIRGENES RD,130,1125-Traffic Hazard,CHP-LA,West Valley,0101000020E6100000C2C760C5A9AC5DC0FCC401F4FB124140,calabasas,91302,2,10
3629,-118.652074,34.153225,2017-04-09 19:45:00,Us101 S / Parkway Calabasas,130,1125-Traffic Hazard,CHP-LA,West Valley,0101000020E61000009A249694BBA95DC0FDF675E09C134140,calabasas,91302,0,10
1366,-118.664777,34.149556,2017-04-08 08:35:00,US101 E / MUREAU RD,130,1125-Traffic Hazard,CHP-LA,West Valley,0101000020E61000008388D4B48BAA5DC0D575A8A624134140,calabasas,91302,6,10
3397,-118.652087,34.153439,2017-04-06 19:14:00,Us101 W / Parkway Calabasas,130,1125-Traffic Hazard,CHP-LA,West Valley,0101000020E610000065C91CCBBBA95DC029779FE3A3134140,calabasas,91302,4,10
2898,-118.244084,33.827884,2017-04-07 16:04:00,Martin St / E 220th St,130,FLOOD-Roadway Flooding,CHP-LA,LA,0101000020E6100000865E7F129F8F5DC0DB70581AF8E94040,carson,90745,5,11
539,-118.285055,33.85209,2017-04-06 06:22:00,La405131t I405 S / I110 S Con,130,1183-Trfc Collision-Unkn Inj,CHP-LA,South LA,0101000020E6100000ECA353573E925DC0D49FFD4811ED4040,carson,90502,4,1
1484,-118.228943,33.825455,2017-04-05 11:31:00,I405 S / Alameda St Ofr,130,1125-Traffic Hazard,CHP-LA,South LA,0101000020E61000007A698A00A78E5DC0EBA86A82A8E94040,carson,90810,3,1
1480,-118.28479,33.857181,2017-04-03 10:48:00,La11089 I110 S / No I405 N,130,ANIMAL-Live or Dead Animal,CHP-LA,South LA,0101000020E6100000940ED6FF39925DC054E0641BB8ED4040,carson,90248,1,1
59,-118.284896,33.846777,2017-04-08 00:15:00,I110 N / Torrance Blvd Onr,130,1125-Traffic Hazard,CHP-LA,South LA,0101000020E6100000B8B06EBC3B925DC0A400513063EC4040,carson,90745,6,1
90,-118.265595,33.841767,2017-04-04 10:15:00,I405 N / Avalon Blvd Onr,130,1125-Traffic Hazard,CHP-LA,LAFSP,0101000020E6100000CABE2B82FF905DC00FED6305BFEB4040,carson,90745,2,0
2333,-118.255136,33.831079,2017-04-08 13:38:00,I405 N / Carson St Ofr,130,1125-Traffic Hazard,CHP-LA,South LA,0101000020E61000001102F22554905DC039B2F2CB60EA4040,carson,90745,6,1
225,-118.266942,33.842798,2017-04-07 01:49:00,I405 S / Avalon Blvd Ofr,130,1125-Traffic Hazard,CHP-LA,South LA,0101000020E610000071FBE59315915DC02D910BCEE0EB4040,carson,90745,5,1
2846,-118.265743,33.8732,2017-04-05 17:03:00,Sr91 E / Avalon Blvd,130,20002-Hit and Run No Injuries,CHP-LA,South LA,0101000020E61000000589EDEE01915DC0006F8104C5EF4040,carson,90746,3,1
2238,-118.284809,33.85684,2017-04-05 14:47:00,I405 S / I110 S,130,1182-Trfc Collision-No Inj,CHP-LA,South LA,0101000020E6100000D126874F3A925DC0CCF3E0EEACED4040,carson,90248,3,1
4022,-118.28479,33.857181,2017-04-07 20:13:00,La11089 I110 S / No I405 N,130,1183-Trfc Collision-Unkn Inj,CHP-LA,South LA,0101000020E6100000940ED6FF39925DC054E0641BB8ED4040,carson,90248,5,1
940,-118.622891,34.489083,2017-04-03 08:16:00,Castaic Oaks Ln / Parker Rd,130,1182-Trfc Collision-No Inj,CHP-LA,Newhall,0101000020E6100000417E3672DDA75DC0C90391459A3E4140,castaic,91384,1,4
4208,-118.099863,33.869527,2017-04-08 21:30:00,I605 N / I605 N Sr91 Con,130,1125-Traffic Hazard,CHP-LA,Santa Fe Springs,0101000020E610000025C5C72764865DC098FE25A94CEF4040,cerritos,90703,6,5
3265,-118.060137,33.87325,2017-04-06 18:57:00,Sr91 W / Artesia Blvd,130,1182-Trfc Collision-No Inj,CHP-LA,Santa Fe Springs,0101000020E6100000E511DC48D9835DC0B29DEFA7C6EF4040,cerritos,90703,4,5
1883,-118.102593,33.876358,2017-04-04 13:02:00,I605 S / Sr91,130,1183-Trfc Collision-Unkn Inj,CHP-LA,Santa Fe Springs,0101000020E61000001BF33AE290865DC043CBBA7F2CF04040,cerritos,90703,2,5
1331,-118.063918,33.875309,2017-04-05 10:46:00,Sr91 E / Bloomfield Ave,130,1125-Traffic Hazard,CHP-LA,Santa Fe Springs,0101000020E61000000BE8853B17845DC07E7214200AF04040,cerritos,90703,3,5
4206,-118.096283,33.858344,2017-04-03 21:20:00,I605 S / South St,130,1125-Traffic Hazard,CHP-LA,Santa Fe Springs,0101000020E61000004B0A2C8029865DC0E25B5837DEED4040,cerritos,90703,1,5
144,-117.849185,33.999603,2017-04-06 12:09:00,SR60 E / BREA CANY,130,20002-Hit and Run No Injuries,CHP-LA,LAFSP,0101000020E61000003ED00A0C59765DC0E3FDB8FDF2FF4040,diamond-bar,91789,4,0
4246,-117.811733,34.023348,2017-04-06 00:00:00,Sr60 W / N Diamond Bar Blvd,130,MZP-Assist CT with Maintenance,CHP-LA,Baldwin Park,0101000020E61000006005F86EF3735DC0A8363811FD024140,diamond-bar,91765,4,7
3848,-117.842712,33.984286,2017-04-07 19:32:00,Sr57 N / Pathfinder Rd,130,1125-Traffic Hazard,CHP-LA,Baldwin Park,0101000020E610000098FC4FFEEE755DC090F46915FDFD4040,diamond-bar,91765,5,7
2598,-117.811667,34.023139,2017-04-09 15:46:00,Sr60 E / N Diamond Bar Blvd,130,1125-Traffic Hazard,CHP-LA,Baldwin Park,0101000020E6100000830F255AF2735DC08E210038F6024140,diamond-bar,91765,0,7
1607,-117.846421,33.97181,2017-04-03 11:24:00,SR57 S / DIAMOND BAR BLVD OFR,130,23114-Object Flying From Veh,CHP-LA,Baldwin Park,0101000020E61000007269FCC22B765DC07FF6234564FC4040,diamond-bar,91765,1,7
2820,-118.614613,34.451639,2017-04-09 16:48:00,I5 N / Castaic Creek,130,1125-Traffic Hazard,CHP-LA,Newhall,0101000020E610000092ACC3D155A75DC0904C874ECF394140,castaic-canyons,91384,0,4
605,-118.248677,34.062772,2017-04-03 06:19:00,Sr110 S / Us101 N,130,1182-Trfc Collision-No Inj,CHP-LA,Central LA,0101000020E61000001D91EF52EA8F5DC0608DB3E908084140,downtown,90012,1,2
573,-118.242947,34.023585,2017-04-05 06:33:00,I10 E / Central Ave Onr,130,FIRE-Report of Fire,CHP-LA,Central LA,0101000020E610000053EA92718C8F5DC08CD651D504034140,downtown,90021,3,2
273,-118.229938,34.028231,2017-04-06 17:01:00,I10 E / S Santa Fe Ave,130,1125-Traffic Hazard,CHP-LA,LAFSP,0101000020E6100000E386DF4DB78E5DC0DFDDCA129D034140,downtown,90021,4,0
1554,-118.249963,34.061469,2017-04-03 11:08:00,I110 N  /  W Temple St,130,1182-Trfc Collision-No Inj,CHP-LA,Central LA,0101000020E6100000718DCF64FF8F5DC0E25B5837DE074140,downtown,90012,1,2
866,-118.23924,34.024537,2017-04-03 07:50:00,I10 E / S Alameda St,130,1125-Traffic Hazard,CHP-LA,Central LA,0101000020E610000048F949B54F8F5DC05F45460724034140,downtown,90021,1,2
3758,-118.268618,34.035394,2017-04-06 20:58:00,I110 N I10 E Con / I10 E,130,1183-Trfc Collision-Unkn Inj,CHP-LA,Central LA,0101000020E61000007B478D0931915DC0C13C64CA87044140,downtown,90015,4,2
4125,-118.257985,34.053633,2017-04-06 22:41:00,La110228 I110 N / No 6th St,130,1183-Trfc Collision-Unkn Inj,CHP-LA,Central LA,0101000020E6100000F37684D382905DC0427E3672DD064140,downtown,90071,4,2
32,-118.271293,34.037668,2017-04-03 07:44:00,I10 W I110 Con / I10 W I110 N Con,130,1125-Traffic Hazard,CHP-LA,LAFSP,0101000020E61000008FA850DD5C915DC0880D164ED2044140,downtown,90015,1,0
3262,-118.237831,34.054248,2017-04-09 18:28:00,Us101 N / N Alameda St,130,20002-Hit and Run No Injuries,CHP-LA,Central LA,0101000020E610000066BE839F388F5DC0CCEF3499F1064140,downtown,90012,0,2
2937,-118.413525,34.006175,2017-04-08 16:08:00,I405 N / Washington Blvd,130,1183-Trfc Collision-Unkn Inj,CHP-LA,West LA,0101000020E610000005C58F31779A5DC0C286A757CA004140,culver-city,90230,6,6
470,-118.400713,33.989533,2017-04-08 02:13:00,I405 S / S Slauson Ave,130,1183-Trfc Collision-Unkn Inj,CHP-LA,West LA,0101000020E61000003F852348A5995DC009A87004A9FE4040,culver-city,90230,6,6
4029,-118.223969,34.081997,2017-04-05 22:04:00,La110265 Sr110 S / No I5 N,130,1182-Trfc Collision-No Inj,CHP-LA,Central LA,0101000020E610000057941282558E5DC05FAFB0E07E0A4140,cypress-park,90065,3,2
3316,-118.224786,34.081808,2017-04-03 17:43:00,I5 S / Sr110 N Con / Broadway Col,130,JUMPER,CHP-LA,Central LA,0101000020E610000051A6D1E4628E5DC08D463EAF780A4140,cypress-park,90065,1,2
2433,-118.309188,34.093776,2017-04-04 15:37:00,US101 N / N Western Ave,130,FIRE-Report of Fire,CHP-LA,Central LA,0101000020E6100000331477BCC9935DC029931ADA000C4140,east-hollywood,90029,2,2
244,-117.955548,34.1398,2017-04-07 16:15:00,I605 N / Mount Olive Dr,130,1125-Traffic Hazard,CHP-LA,LAFSP,0101000020E61000008670CCB2277D5DC08BFD65F7E4114140,duarte,91010,5,0
9,-118.227297,34.144921,2017-04-08 00:00:00,Media Log,130,1013-Road/Weather Conditions,CHP-LA,LA,0101000020E6100000A65EB7088C8E5DC077C075C58C124140,eagle-rock,90041,6,11
2985,-118.227253,34.144961,2017-04-07 16:23:00,Lartmc,130,SILVER Alert,CHP-LA,Altadena,0101000020E6100000BFBA2A508B8E5DC0051901158E124140,eagle-rock,90041,5,9
277,-118.180447,34.033399,2017-04-03 02:38:00,Sr60 E / S Downey Rd,130,1182-Trfc Collision-No Inj,CHP-LA,East LA,0101000020E610000053EA92718C8B5DC00B5C1E6B46044140,east-los-angeles,90063,1,3
2286,-118.13083,34.011462,2017-04-05 14:59:00,Garfield Ave / E Olympic Blvd,130,1183-Trfc Collision-Unkn Inj,CHP-LA,East LA,0101000020E61000007CD5CA845F885DC0C992399677014140,east-los-angeles,90022,3,3
635,-118.173251,34.018906,2017-04-08 03:03:00,I710 N / E Olympic Blvd,130,1182-Trfc Collision-No Inj,CHP-LA,East LA,0101000020E6100000F5BF5C8B168B5DC05ED905836B024140,east-los-angeles,90022,6,3
1799,-118.17236,34.018904,2017-04-04 12:37:00,S Ford Blvd / E Olympic Blvd,130,1166-Defective Traffic Signals,CHP-LA,East LA,0101000020E6100000DFC83CF2078B5DC0BDE13E726B024140,east-los-angeles,90022,2,3
1303,-118.173496,34.018906,2017-04-03 09:59:00,I710 S / E Olympic Blvd,130,1182-Trfc Collision-No Inj,CHP-LA,East LA,0101000020E6100000287FF78E1A8B5DC05ED905836B024140,east-los-angeles,90022,1,3
2581,-118.158533,34.016289,2017-04-06 16:30:00,E Olympic Blvd / S Atlantic Blvd,130,20002-Hit and Run No Injuries,CHP-LA,East LA,0101000020E61000008E959867258A5DC06C2409C215024140,east-los-angeles,90022,4,3
3010,-118.191987,34.031253,2017-04-07 16:26:00,La06018 Sr60 E / Eo Indiana St,130,1183-Trfc Collision-Unkn Inj,CHP-LA,East LA,0101000020E61000007690D783498C5DC071732A1900044140,east-los-angeles,90063,5,3
4060,-118.158533,34.016289,2017-04-09 21:26:00,S Atlantic Blvd / E Olympic Blvd,130,20002-Hit and Run No Injuries,CHP-LA,East LA,0101000020E61000008E959867258A5DC06C2409C215024140,east-los-angeles,90022,0,3
3430,-118.169879,34.035528,2017-04-06 19:24:00,Sr60 E / I710 N,130,1125-Traffic Hazard,CHP-LA,East LA,0101000020E6100000BE512B4CDF8A5DC0D00B772E8C044140,east-los-angeles,90022,4,3
1002,-118.280699,34.150413,2017-04-03 08:32:00,Sr134 E I5 S Con / I5 S,130,1182-Trfc Collision-No Inj,CHP-LA,Altadena,0101000020E61000004641F0F8F6915DC056F2B1BB40134140,griffith-park,90027,1,9
102,-118.287615,34.154365,2017-04-06 10:16:00,Sr134 W I5 N Con / I5 N,130,1125-Traffic Hazard,CHP-LA,LAFSP,0101000020E6100000B2B5BE4868925DC0D352793BC2134140,griffith-park,90027,4,0
15,-118.273705,34.127583,2017-04-03 06:43:00,I5 S / Los Feliz Blvd Ofr,130,1125-Traffic Hazard,CHP-LA,LAFSP,0101000020E61000001CF0F96184915DC04643C6A354104140,griffith-park,90027,1,0
39,-118.271244,34.120436,2017-04-09 11:40:00,I5 S / LOS FELIZ BLVD,130,1125-Traffic Hazard,CHP-LA,LAFSP,0101000020E61000001E4FCB0F5C915DC06AA164726A0F4140,griffith-park,90027,0,0
400,-117.985385,34.016738,2017-04-03 03:54:00,SR60 W / SEVENTH AVE OFR,130,1182-Trfc Collision-No Inj,CHP-LA,Santa Fe Springs,0101000020E6100000043E3F8C107F5DC0DC4C857824024140,hacienda-heights,91745,1,5
4340,-117.973023,33.981124,2017-04-07 21:37:00,Colima Rd / S Hacienda Blvd,130,1182-Trfc Collision-No Inj,CHP-LA,Santa Fe Springs,0101000020E61000005FD04202467E5DC00DA9A27895FD4040,hacienda-heights,91745,5,5
3028,-118.443348,33.983226,2017-04-09 17:25:00,4533 Admiralty Way,130,1182-Trfc Collision-No Inj,CHP-LA,West LA,0101000020E6100000CF2F4AD05F9C5DC0D8497D59DAFD4040,marina-del-rey,90292,0,6
3192,-118.505258,34.171251,2017-04-05 18:18:00,Us101 N / Balboa Blvd Onr,130,DOT-Request CalTrans Notify,CHP-LA,West Valley,0101000020E6100000B782A62556A05DC02234828DEB154140,encino,91316,3,10
2170,-118.520242,34.162139,2017-04-06 15:38:00,5031 Alonzo Ave,130,1182-Trfc Collision-No Inj,CHP-LA,West Valley,0101000020E61000005C001AA54BA15DC0FD3383F8C0144140,encino,91316,4,10
3939,-118.309149,33.859753,2017-04-07 19:53:00,I405 S / Western Ave,130,20002-Hit and Run No Injuries,CHP-LA,South LA,0101000020E6100000D525E318C9935DC0A7D1E4620CEE4040,harbor-gateway,90248,5,1
2014,-118.309145,33.859953,2017-04-09 13:22:00,I405 N / Western Ave,130,1183-Trfc Collision-Unkn Inj,CHP-LA,South LA,0101000020E6100000342E1C08C9935DC06E8C9DF012EE4040,harbor-gateway,90504,0,1
3957,-118.285854,33.892639,2017-04-06 21:53:00,I110 S / Redondo Beach Blvd,130,CLOSURE of a Road,CHP-LA,South LA,0101000020E6100000925B936E4B925DC02C11A8FE41F24040,harbor-gateway,90247,4,1
804,-118.284779,33.86893,2017-04-09 04:52:00,I110 N / I110 N Sr91 E Con,130,1125-Traffic Hazard,CHP-LA,South LA,0101000020E61000009BE5B2D139925DC0B341261939EF4040,harbor-gateway,90248,0,1
1062,-118.013174,34.05972,2017-04-05 15:57:00,Valley Blvd / Durfee Ave,130,1182-Trfc Collision-No Inj,CHP-Inland,LACC,0101000020E610000014CAC2D7D7805DC06475ABE7A4074140,el-monte,91732,3,12
1756,-118.02874,34.06811,2017-04-03 12:00:00,I10 W / Peck Rd,130,1125-Traffic Hazard,CHP-LA,East LA,0101000020E610000091054CE0D6815DC0E94317D4B7084140,el-monte,91731,1,3
1993,-118.005489,34.064464,2017-04-05 13:52:00,Garvey Ave Ofr / I10 W,130,1182-Trfc Collision-No Inj,CHP-LA,East LA,0101000020E610000036DF88EE59805DC07AE2395B40084140,el-monte,91732,3,3
2679,-118.031197,34.067823,2017-04-03 15:31:00,I10 E / Peck Rd N Ofr,130,1125A-Animal Hazard,CHP-LA,East LA,0101000020E6100000EEAEB321FF815DC053758F6CAE084140,el-monte,91731,1,3
46,-118.242452,34.093891,2017-04-09 11:53:00,I5 S / Sr2 W I5 S Con,130,1125-Traffic Hazard,CHP-LA,LAFSP,0101000020E610000063B66455848F5DC0C231CB9E040C4140,elysian-valley,90031,0,0
61,-118.237527,34.08913,2017-04-08 00:19:00,I5 S / I5 S Sr110 S Con,130,1183-Trfc Collision-Unkn Inj,CHP-LA,Central LA,0101000020E6100000B03A72A4338F5DC0D68BA19C680B4140,elysian-valley,90031,6,2
2558,-118.249683,34.104104,2017-04-06 17:28:00,I5 S Sr2 E Con / Sr2 N,130,1182-Trfc Collision-No Inj,CHP-LA,Central LA,0101000020E610000080D767CEFA8F5DC0FFB0A547530D4140,elysian-valley,90039,4,2
285,-118.249564,34.107175,2017-04-07 02:20:00,Sr2 N / I5 N Sr2 E Con,130,1182-Trfc Collision-No Inj,CHP-LA,Central LA,0101000020E6100000929048DBF88F5DC072F90FE9B70D4140,elysian-valley,90039,5,2
504,-118.241938,33.960145,2017-04-09 02:23:00,Firestone Blvd / Beach St,130,20002-Hit and Run No Injuries,CHP-LA,South LA,0101000020E6100000376A85E97B8F5DC07F350708E6FA4040,florence-firestone,90001,0,1
1405,-118.240598,33.98473,2017-04-09 10:23:00,1824 E 61st St,130,20002-Hit and Run No Injuries,CHP-LA,South LA,0101000020E6100000E95E27F5658F5DC0EEB1F4A10BFE4040,florence-firestone,90001,0,1
333,-118.242156,34.114371,2017-04-06 03:16:00,Sr2 N / San Fernando Rd Onr,130,1125-Traffic Hazard,CHP-LA,Central LA,0101000020E6100000EF21E17B7F8F5DC0304E7CB5A30E4140,glassell-park,90065,4,2
2850,-118.264356,34.156272,2017-04-07 15:52:00,Sr134 W / N Pacific Ave,130,1183-Trfc Collision-Unkn Inj,CHP-LA,Altadena,0101000020E610000017A06D35EB905DC0E7A38CB800144140,glendale,91203,5,9
1922,-118.22874,34.14775,2017-04-07 12:21:00,Sr134 W / Harvey Dr,130,1125-Traffic Hazard,CHP-LA,Altadena,0101000020E61000005ED218ADA38E5DC0F4FDD478E9124140,glendale,90041,5,9
3463,-118.2254,34.1593,2017-04-09 19:02:00,La002199 Sr2 S / Mountain St,130,1125-Traffic Hazard,CHP-LA,Altadena,0101000020E61000002D211FF46C8E5DC05C2041F163144140,glendale,91206,0,9
2998,-117.837183,34.120136,2017-04-07 16:24:00,I210 E / Sr57 S,130,20002-Hit and Run No Injuries,CHP-LA,Baldwin Park,0101000020E61000001A71016894755DC03F89CF9D600F4140,glendora,91740,5,7
1433,-117.84632,34.117489,2017-04-03 10:35:00,I210 E / Sunflower Ave,130,HAZMAT-Hazardous Materials Inc,CHP-LA,Baldwin Park,0101000020E6100000D87C5C1B2A765DC0E3512AE1090F4140,glendora,91740,1,7
848,-117.84632,34.117489,2017-04-08 04:10:00,I210 E / Sunflower Ave,130,1179-Trfc Collision-1141 Enrt,CHP-LA,Baldwin Park,0101000020E6100000D87C5C1B2A765DC0E3512AE1090F4140,glendora,91740,6,7
1658,-118.472243,34.266078,2017-04-08 10:07:00,La118103t Sr118 W / I405 S Con,130,1125-Traffic Hazard,CHP-LA,West Valley,0101000020E6100000F430B43A399E5DC0B1170AD80E224140,granada-hills,91344,6,10
3308,-118.280745,34.011075,2017-04-05 18:43:00,I110 N / MLK,130,1179-Trfc Collision-1141 Enrt,CHP-LA,Central LA,0101000020E6100000FE60E0B9F7915DC0CF66D5E76A014140,historic-south-central,90037,3,2
1325,-118.370277,33.898375,2017-04-07 09:53:00,I405 S / W Rosecrans Ave,130,1125-Traffic Hazard,CHP-LA,West LA,0101000020E6100000815D4D9EB2975DC0A245B6F3FDF24040,hawthorne,90250,5,6
1702,-118.340919,33.928085,2017-04-07 11:34:00,I105 W / Prairie Ave,130,FIRE-Report of Fire,CHP-LA,West LA,0101000020E610000071E5EC9DD1955DC03E74417DCBF64040,hawthorne,90250,5,6
639,-118.47404,34.197775,2017-04-07 06:20:00,I405 N / Sherman Way E Ofr,130,1125-Traffic Hazard,CHP-LA,West Valley,0101000020E6100000BB3FDEAB569E5DC0B37BF2B050194140,van-nuys,91406,5,10
2109,-118.473991,34.186639,2017-04-05 14:21:00,I405 N / Victory Blvd,130,1183-Trfc Collision-Unkn Inj,CHP-LA,West Valley,0101000020E61000004BE658DE559E5DC03E9468C9E3174140,van-nuys,91406,3,10
3278,-118.197575,34.102695,2017-04-05 18:35:00,Sr110 N / Avenue 52 Ofr,130,20002-Hit and Run No Injuries,CHP-LA,Central LA,0101000020E610000076E09C11A58C5DC03B3B191C250D4140,highland-park,90042,3,2
3000,-118.177272,34.112978,2017-04-05 17:35:00,Sr110 S / York Blvd,130,1125-Traffic Hazard,CHP-LA,Central LA,0101000020E6100000C79FA86C588B5DC071952710760E4140,highland-park,90042,3,2
705,-118.352986,34.272086,2017-04-04 07:12:00,I210 E / Wheatland Ave,130,1125-Traffic Hazard,CHP-LA,Altadena,0101000020E61000008A7C975297965DC088D9CBB6D3224140,lake-view-terrace,91342,2,9
2827,-117.981146,34.109158,2017-04-04 16:57:00,I605 S / LIVE OAK AVE,130,1179-Trfc Collision-1141 Enrt,CHP-LA,Baldwin Park,0101000020E61000007AA69718CB7E5DC0630CACE3F80D4140,irwindale,91706,2,7
2614,-117.953798,34.13344,2017-04-09 15:50:00,I210 W / I210 W I605 N Con,130,1182-Trfc Collision-No Inj,CHP-LA,Baldwin Park,0101000020E61000005F3FC4060B7D5DC037FDD98F14114140,irwindale,91706,0,7
2756,-117.933687,34.129716,2017-04-05 17:22:00,I210 E / N Irwindale Ave,130,20002-Hit and Run No Injuries,CHP-LA,Baldwin Park,0101000020E6100000D36C1E87C17B5DC04BE2AC889A104140,irwindale,91706,3,7
3549,-117.860097,33.957601,2017-04-07 18:23:00,Sr57 N / S Brea Canyon Rd,130,1125-Traffic Hazard,CHP-LA,Baldwin Park,0101000020E6100000D09849D40B775DC0F7CE68AB92FA4040,south-diamond-bar,91765,5,7
670,-118.047021,33.893625,2017-04-03 06:50:00,I5 S / Carmenita Rd,130,20002-Hit and Run No Injuries,CHP-LA,Santa Fe Springs,0101000020E61000006A4E5E6402835DC0AAF1D24D62F24040,santa-fe-springs,90670,1,5
72,-118.046974,33.893956,2017-04-04 09:02:00,I5 N / Carmenita Rd,130,1182-Trfc Collision-No Inj,CHP-LA,LAFSP,0101000020E6100000CA703C9F01835DC0100874266DF24040,santa-fe-springs,90650,2,0
47,-118.046974,33.893956,2017-04-09 00:10:00,I5 N / Carmenita Rd,130,1125-Traffic Hazard,CHP-LA,Santa Fe Springs,0101000020E6100000CA703C9F01835DC0100874266DF24040,santa-fe-springs,90650,0,5
958,-118.095069,33.943878,2017-04-07 08:11:00,0 I5 N I605 N Con,130,TADV-Traffic Advisory,CHP-LA,Santa Fe Springs,0101000020E61000004277499C15865DC0FBB48AFED0F84040,santa-fe-springs,90670,5,5
3771,-118.096632,33.941369,2017-04-04 20:31:00,La60597 I605 S / So I5 N,130,20002-Hit and Run No Injuries,CHP-LA,Santa Fe Springs,0101000020E6100000D0EFFB372F865DC0EF3B86C77EF84040,santa-fe-springs,90670,2,5
1744,-118.092226,33.949495,2017-04-08 10:36:00,I605 S / Telegraph Rd Onr,130,20002-Hit and Run No Injuries,CHP-LA,Santa Fe Springs,0101000020E6100000D175E107E7855DC0965B5A0D89F94040,santa-fe-springs,90670,6,5
4107,-118.096502,33.941182,2017-04-09 21:36:00,I5 N / I605 N,130,1125-Traffic Hazard,CHP-LA,Santa Fe Springs,0101000020E6100000E97FB9162D865DC0BCCADAA678F84040,santa-fe-springs,90670,0,5
4754,-118.045744,33.893302,2017-04-03 23:56:00,I5 N / Carmenita Rd,130,CLOSURE of a Road,CHP-LA,LA,0101000020E61000003FFF3D78ED825DC0C7B94DB857F24040,santa-fe-springs,90670,1,11
574,-118.046527,33.893539,2017-04-04 06:19:00,I5 S / Carmenita Rd,130,1182-Trfc Collision-No Inj,CHP-LA,LA,0101000020E610000062D8614CFA825DC0AC59677C5FF24040,santa-fe-springs,90670,2,11
652,-118.490649,34.012578,2017-04-06 07:24:00,I10 W / 4th St,130,1183-Trfc Collision-Unkn Inj,CHP-LA,West LA,0101000020E61000002B3410CB669F5DC01653E9279C014140,santa-monica,90401,4,6
3617,-118.264969,34.111054,2017-04-08 18:54:00,Riverside Dr / Glendale Blvd,130,20002-Hit and Run No Injuries,CHP-LA,LA,0101000020E61000000B5D8940F5905DC0840B7904370E4140,silver-lake,90039,6,11
2134,-118.066818,34.062691,2017-04-03 13:36:00,Lee Ave / Garvey Ave,130,1182-Trfc Collision-No Inj,CHP-LA,LA,0101000020E61000002F3201BF46845DC07460394206084140,south-el-monte,91733,1,11
602,-118.023245,33.941885,2017-04-09 02:51:00,14408 Hawes St,130,1183-Trfc Collision-Unkn Inj,CHP-LA,Santa Fe Springs,0101000020E6100000E9B298D87C815DC0E6CB0BB08FF84040,south-whittier,90604,0,5
4083,-117.875335,33.995411,2017-04-04 21:59:00,Sr60 E / Wo Fairway Dr,130,1125-Traffic Hazard,CHP-LA,Santa Fe Springs,0101000020E6100000D482177D05785DC0118AADA069FF4040,industry,91748,2,5
1312,-118.037596,34.027158,2017-04-08 08:08:00,I605 N / Peck Rd,130,1125-Traffic Hazard,CHP-LA,Santa Fe Springs,0101000020E6100000779D0DF967825DC092E9D0E979034140,industry,90601,6,5
2275,-117.931031,33.996831,2017-04-03 14:06:00,Sr60 E / Azusa Ave,130,20002-Hit and Run No Injuries,CHP-LA,Santa Fe Springs,0101000020E6100000FB230C03967B5DC0CA51802898FF4040,industry,91745,1,5
2592,-118.037563,34.02742,2017-04-08 14:45:00,I605 S / Peck Rd,130,1182-Trfc Collision-No Inj,CHP-LA,Santa Fe Springs,0101000020E61000008922A46E67825DC0CFA0A17F82034140,industry,90601,6,5
1744,-117.860618,33.997931,2017-04-05 12:44:00,Sr60 W / Eo Fairway Dr,130,1182-Trfc Collision-No Inj,CHP-LA,Baldwin Park,0101000020E61000005416855D14775DC01155F833BCFF4040,industry,91789,3,7
1269,-117.930595,33.996765,2017-04-05 10:28:00,Sr60 E / Azusa Ave S Onr,130,1182-Trfc Collision-No Inj,CHP-LA,Santa Fe Springs,0101000020E61000008DB454DE8E7B5DC01366DAFE95FF4040,industry,91748,3,5
1429,-117.931031,33.996831,2017-04-04 14:43:00,SR60 E / AZUSA AVE,130,1182-Trfc Collision-No Inj,CHP-LA,Santa Fe Springs,0101000020E6100000FB230C03967B5DC0CA51802898FF4040,industry,91745,2,5
2274,-118.037563,34.02742,2017-04-07 14:44:00,I605 S / Peck Rd,130,1182-Trfc Collision-No Inj,CHP-LA,Santa Fe Springs,0101000020E61000008922A46E67825DC0CFA0A17F82034140,industry,90601,5,5
875,-118.181024,34.190014,2017-04-03 07:54:00,I210 E / Berkshire Ave,130,1179-Trfc Collision-1141 Enrt,CHP-LA,Altadena,0101000020E6100000A1F2AFE5958B5DC01DE4F56052184140,la-canada-flintridge,91011,1,9
2004,-118.235056,34.230427,2017-04-05 13:54:00,Rosemont Ave / Orange Ave,130,1182-Trfc Collision-No Inj,CHP-LA,Altadena,0101000020E6100000A12E52280B8F5DC0C58EC6A17E1D4140,la-crescenta-montrose,91214,3,9
215,-118.084282,33.831508,2017-04-05 02:14:00,I605 S / Carson St,130,1183-Trfc Collision-Unkn Inj,CHP-LA,Santa Fe Springs,0101000020E61000000E6954E064855DC0622EA9DA6EEA4040,lakewood,90715,3,5
136,-118.028821,33.884131,2017-04-03 12:59:00,I5 N / Valley View Ave,130,1183-Trfc Collision-Unkn Inj,CHP-LA,LAFSP,0101000020E6100000081C0934D8815DC09C3061342BF14040,la-mirada,90638,1,0
3178,-117.76161,34.119783,2017-04-04 18:06:00,I210 W / Fruit St,130,1183-Trfc Collision-Unkn Inj,CHP-LA,Baldwin Park,0101000020E61000009F93DE37BE705DC0F2CEA10C550F4140,la-verne,91750,2,7
4571,-117.786924,34.119925,2017-04-09 23:52:00,I210 E / Foothill Blvd / La Verne (81-208),130,FIRE-Report of Fire,CHP-LA,Baldwin Park,0101000020E6100000001C7BF65C725DC0857CD0B3590F4140,la-verne,91750,0,7
2988,-118.281198,34.003767,2017-04-08 16:21:00,I110 S / W Vernon Ave,130,1125-Traffic Hazard,CHP-LA,Central LA,0101000020E6100000D76CE525FF915DC0EAE6E26F7B004140,vermont-square,90037,6,2
2595,-118.219214,34.075038,2017-04-06 16:31:00,I5 N / Pasadena Ave,130,FIRE-Report of Fire,CHP-LA,Central LA,0101000020E6100000D234289A078E5DC087FA5DD89A094140,lincoln-heights,90031,4,2
1268,-118.356064,34.13399,2017-04-03 10:09:00,US101 S / CAHUENGA BLVD W OFR,130,1125-Traffic Hazard,CHP-LA,Central LA,0101000020E61000001BD2A8C0C9965DC0DBFE959526114140,studio-city,90068,1,2
298,-118.396588,34.154336,2017-04-06 17:48:00,Us101 E / Laurel Canyon Blvd,130,1182-Trfc Collision-No Inj,CHP-LA,LAFSP,0101000020E61000001B7FA2B261995DC0384C3448C1134140,studio-city,91607,4,0
2354,-118.329644,34.259733,2017-04-07 14:05:00,I210 W / Sunland Blvd,130,FIRE-Report of Fire,CHP-LA,Altadena,0101000020E6100000A5D425E318955DC0935852EE3E214140,sunland,91040,5,9
207,-118.283991,34.036997,2017-04-03 01:42:00,I10 E / S Hoover St,130,1183-Trfc Collision-Unkn Inj,CHP-LA,Central LA,0101000020E6100000EE5696E82C925DC06A865451BC044140,pico-union,90007,1,2
3641,-118.284743,34.038172,2017-04-05 20:20:00,Arapahoe St / W 20th St,130,1182-Trfc Collision-No Inj,CHP-LA,Central LA,0101000020E6100000F430B43A39925DC0BBCFF1D1E2044140,pico-union,90007,3,2
3302,-118.440763,34.315545,2017-04-05 18:41:00,Polk St / Foothill Blvd,130,1182-Trfc Collision-No Inj,CHP-LA,LA,0101000020E61000005B920376359C5DC04AB54FC763284140,sylmar,91342,3,11
4298,-118.429305,34.308325,2017-04-03 21:43:00,I210 W / Hubbard St,130,CFIRE-Car Fire,CHP-LA,Newhall,0101000020E610000098C0ADBB799B5DC005C58F3177274140,sylmar,91342,1,4
853,-118.495922,34.320664,2017-04-06 08:15:00,I5 S / I210 E,130,CLOSURE of a Road,CHP-LA,Newhall,0101000020E61000007BD7A02FBD9F5DC0958098840B294140,sylmar,91342,4,4
2899,-118.479548,34.303383,2017-04-06 17:25:00,I5 N / Roxford St,130,1182-Trfc Collision-No Inj,CHP-LA,Newhall,0101000020E61000002E3718EAB09E5DC0C9940F41D5264140,sylmar,91342,4,4
866,-118.535986,34.172341,2017-04-05 08:16:00,Burbank Blvd / Reseda Blvd,130,1182-Trfc Collision-No Inj,CHP-LA,West Valley,0101000020E61000004A4739984DA25DC0456117450F164140,tarzana,91356,3,10
1929,-118.553468,34.173645,2017-04-04 13:15:00,Us101 N / Tampa Ave,130,1125-Traffic Hazard,CHP-LA,West Valley,0101000020E61000007BD80B056CA35DC0950ED6FF39164140,tarzana,91356,2,10
1659,-117.983899,34.052013,2017-04-09 11:50:00,Temple Ave / Millbury Ave,130,1179-Trfc Collision-1141 Enrt,CHP-LA,Baldwin Park,0101000020E61000004BE48233F87E5DC0C2FBAA5CA8064140,west-puente-valley,91746,0,7
1249,-118.417733,33.982614,2017-04-08 07:39:00,La09015 Sr90 W / Wo S Centinela Av,130,1125-Traffic Hazard,CHP-LA,West LA,0101000020E6100000715D3123BC9A5DC0BE4BA94BC6FD4040,playa-vista,90066,6,6
820,-118.326524,33.864472,2017-04-09 04:59:00,I405 S / Crenshaw Blvd,130,1125-Traffic Hazard,CHP-LA,South LA,0101000020E6100000FB56EBC4E5945DC06327BC04A7EE4040,torrance,90504,0,1
2365,-118.205503,33.923106,2017-04-06 15:45:00,I105 W / Long Beach Blvd Ofr,130,20002-Hit and Run No Injuries,CHP-LA,South LA,0101000020E6100000B70E0EF6268D5DC0E55E605628F64040,lynwood,90262,4,1
1914,-118.210009,33.924731,2017-04-04 13:12:00,I105 E / Long Beach Blvd,130,1182-Trfc Collision-No Inj,CHP-LA,South LA,0101000020E610000068B796C9708D5DC0774CDD955DF64040,lynwood,90262,2,1
563,-118.180194,33.912704,2017-04-08 02:40:00,I710 S / I105 E,130,1182-Trfc Collision-No Inj,CHP-LA,East LA,0101000020E6100000DE3B6A4C888B5DC0D576137CD3F44040,lynwood,90262,6,3
1228,-118.290932,34.234842,2017-04-09 09:18:00,I210 E / La Tuna Canyon Rd,130,1125A-Animal Hazard,CHP-LA,Altadena,0101000020E6100000095740A19E925DC016DD7A4D0F1E4140,tujunga,91352,0,9
4732,-118.709926,34.585139,2017-04-09 00:13:00,I5 S / WHITAKER BRAKE CHECK,130,1125-Traffic Hazard,CHP-LA,Newhall,0101000020E61000002025766D6FAD5DC09C4EB2D5E54A4140,ridge-route,91384,0,4
3599,-118.667648,34.548217,2017-04-04 19:43:00,I5 N / Chp Rd,130,1125-Traffic Hazard,CHP-LA,Newhall,0101000020E6100000594FADBEBAAA5DC03D0E83F92B464140,ridge-route,91384,2,4
2803,-118.71143,34.588728,2017-04-09 16:52:00,I5 N / WHITAKER SAND SHED,130,1183-Trfc Collision-Unkn Inj,CHP-LA,Newhall,0101000020E61000002CD9B11188AD5DC0A81E69705B4B4140,ridge-route,91384,0,4
449,-118.379192,34.156768,2017-04-04 05:12:00,Us101 S / Tujunga Ave,130,CFIRE-Car Fire,CHP-LA,West Valley,0101000020E6100000E8B985AE44985DC098874CF910144140,valley-village,91602,2,10
1722,-118.384387,34.168577,2017-04-03 11:54:00,Sr170 N / Burbank Blvd Ofr,130,1125-Traffic Hazard,CHP-LA,West Valley,0101000020E61000007D80EECB99985DC0CCED5EEE93154140,valley-village,91601,1,10
3136,-118.41378,34.156833,2017-04-07 16:53:00,Us101 W / Coldwater Canyon Blvd,130,1179-Trfc Collision-1141 Enrt,CHP-LA,West Valley,0101000020E61000004AEF1B5F7B9A5DC07FF78E1A13144140,valley-village,91423,5,10
1061,-118.379384,34.157166,2017-04-04 08:52:00,Sr170 S / Sr170 S Sr134 E Con,130,20002-Hit and Run No Injuries,CHP-LA,West Valley,0101000020E61000000B28D4D347985DC08505F7031E144140,valley-village,91602,2,10
1797,-118.405227,34.159427,2017-04-03 12:12:00,Huston St / Whitsett Ave,130,1179-Trfc Collision-1141 Enrt,CHP-LA,LA,0101000020E6100000321D3A3DEF995DC0B98C9B1A68144140,valley-village,91607,1,11
2809,-118.381343,34.162088,2017-04-03 16:01:00,Sr170 N / Magnolia Blvd Ofr,130,1182-Trfc Collision-No Inj,CHP-LA,West Valley,0101000020E6100000BE6378EC67985DC07A89B14CBF144140,valley-village,91601,1,10
1065,-118.382786,34.164903,2017-04-06 09:29:00,Sr170 S / Magnolia,130,1125-Traffic Hazard,CHP-LA,West Valley,0101000020E610000078D7D9907F985DC09301A08A1B154140,valley-village,91601,4,10
2949,-118.431219,34.155739,2017-04-04 17:30:00,US101 W / WOODMAN AVE,130,1182-Trfc Collision-No Inj,CHP-LA,West Valley,0101000020E61000007C9A9317999B5DC01BDB6B41EF134140,sherman-oaks,91423,2,10
3008,-118.431243,34.155567,2017-04-03 16:44:00,Us101 S / Woodman Ave,130,1182-Trfc Collision-No Inj,CHP-LA,West Valley,0101000020E610000040683D7C999B5DC01DAB949EE9134140,sherman-oaks,91423,1,10
2046,-118.468226,34.154179,2017-04-05 14:07:00,I405 S / Ventura Blvd,130,1183-Trfc Collision-Unkn Inj,CHP-LA,West Valley,0101000020E6100000C3482F6AF79D5DC0705D3123BC134140,sherman-oaks,91403,3,10
2481,-118.475396,34.126388,2017-04-04 15:34:00,I405 N / Mulholland Dr,130,1183-Trfc Collision-Unkn Inj,CHP-LA,West Valley,0101000020E61000008C2958E36C9E5DC0AD4D637B2D104140,sherman-oaks,90049,2,10
250,-118.431219,34.155739,2017-04-05 02:44:00,Us101 W / Woodman Ave,130,CLOSURE of a Road,CHP-LA,West Valley,0101000020E61000007C9A9317999B5DC01BDB6B41EF134140,sherman-oaks,91423,3,10
285,-118.469503,34.164015,2017-04-05 17:51:00,I405 N / Us101 S I405 N Con,130,1182-Trfc Collision-No Inj,CHP-LA,LAFSP,0101000020E6100000EE974F560C9E5DC0D7868A71FE144140,sherman-oaks,91403,3,0
214,-118.43484,34.155555,2017-04-08 01:06:00,Us101 S / Woodman Ave Ofr,130,1183-Trfc Collision-Unkn Inj,CHP-LA,West Valley,0101000020E610000087BF266BD49B5DC059DDEA39E9134140,sherman-oaks,91423,6,10
170,-118.376696,34.153224,2017-04-08 00:56:00,Us101 S / Sr134 E,130,1179-Trfc Collision-1141 Enrt,CHP-LA,West Valley,0101000020E61000002D228AC91B985DC02D7B12D89C134140,north-hollywood,91602,6,10
878,-118.403727,34.201239,2017-04-04 08:01:00,Sr170 S / Sherman Way,130,1125-Traffic Hazard,CHP-LA,West Valley,0101000020E6100000C860C5A9D6995DC002D71533C2194140,north-hollywood,91605,2,10
3229,-118.401504,34.186747,2017-04-03 17:34:00,SR170 S / VICTORY,130,20002-Hit and Run No Injuries,CHP-LA,West Valley,0101000020E6100000A54DD53DB2995DC024D06053E7174140,north-hollywood,91606,1,10
571,-118.107792,33.796703,2017-04-07 05:41:00,I405 S / Palo Verde Ave,130,1125-Traffic Hazard,CHP-LA,South LA,0101000020E61000004EB16A10E6865DC003D0285DFAE54040,long-beach,90815,5,1
3145,-118.142507,33.805847,2017-04-04 17:56:00,I405 N / Lakewood Blvd,130,1125-Traffic Hazard,CHP-LA,South LA,0101000020E6100000DF1CAED51E895DC0344A97FE25E74040,long-beach,90815,2,1
3526,-118.208701,33.831641,2017-04-08 18:33:00,I710 N / I405 N I710 N Con,130,20002-Hit and Run No Injuries,CHP-LA,South LA,0101000020E61000001F69705B5B8D5DC0A181583673EA4040,long-beach,90810,6,1
67,-118.20734,33.804325,2017-04-05 08:37:00,I710 N / Willow St,130,1125-Traffic Hazard,CHP-LA,LAFSP,0101000020E6100000C4C9FD0E458D5DC0772D211FF4E64040,long-beach,90810,3,0
1629,-118.198851,33.823144,2017-04-06 12:29:00,I405 S / Pacific Ave,130,1125-Traffic Hazard,CHP-LA,South LA,0101000020E6100000B9718BF9B98C5DC006F357C85CE94040,long-beach,90806,4,1
1738,-118.218579,33.825153,2017-04-07 11:39:00,I405 S / I405 S I710 N Con,130,1125-Traffic Hazard,CHP-LA,South LA,0101000020E6100000EA25C632FD8D5DC020990E9D9EE94040,long-beach,90810,5,1
3699,-118.199257,33.862817,2017-04-07 18:56:00,I710 S / Long Beach Blvd,130,1125-Traffic Hazard,CHP-LA,South LA,0101000020E6100000F19F6EA0C08C5DC067B796C970EE4040,long-beach,90805,5,1
182,-118.207516,33.782624,2017-04-04 01:33:00,I710 N / W Anaheim St,130,FIRE-Report of Fire,CHP-LA,South LA,0101000020E6100000645930F1478D5DC04888F2052DE44040,long-beach,90813,2,1
2711,-118.205387,33.846608,2017-04-06 16:50:00,I710 N / Del Amo Blvd,130,1125-Traffic Hazard,CHP-LA,South LA,0101000020E61000008301840F258D5DC01844A4A65DEC4040,long-beach,90805,4,1
530,-118.218579,33.825153,2017-04-08 02:32:00,I405 S / I405 S I710 N Con,130,1182-Trfc Collision-No Inj,CHP-LA,South LA,0101000020E6100000EA25C632FD8D5DC020990E9D9EE94040,long-beach,90810,6,1
2917,-118.167665,33.813428,2017-04-08 16:09:00,I405 S / CHERRY AVE,130,CFIRE-Car Fire,CHP-LA,South LA,0101000020E6100000C3EBFA05BB8A5DC04AD3A0681EE84040,long-beach,90807,6,1
3176,-118.000743,34.135357,2017-04-09 18:00:00,I210 E / S Myrtle Ave,130,1182-Trfc Collision-No Inj,CHP-LA,Baldwin Park,0101000020E6100000DC2C5E2C0C805DC07024D06053114140,monrovia,91016,0,7
4767,-118.015628,34.139427,2017-04-08 23:53:00,I210 W / Huntington Dr Ofr,130,1183-Trfc Collision-Unkn Inj,CHP-LA,Baldwin Park,0101000020E6100000B939950C00815DC0F79672BED8114140,monrovia,91016,6,7
1843,-117.94384,34.050586,2017-04-08 11:12:00,Francisquito Ave / N Hacienda Blvd,130,1182-Trfc Collision-No Inj,CHP-LA,Baldwin Park,0101000020E6100000062AE3DF677C5DC056D11F9A79064140,valinda,91744,6,7
126,-118.279698,33.947331,2017-04-06 00:56:00,I110 S / No Century Blvd,130,1125-Traffic Hazard,CHP-LA,Central LA,0101000020E61000006CB07092E6915DC055BE672442F94040,vermont-vista,90003,4,2
126,-118.280952,33.930997,2017-04-06 01:26:00,I110 S / IMPERIAL HWY,130,1125-Traffic Hazard,CHP-LA,South LA,0101000020E6100000BBEF181EFB915DC049D6E1E82AF74040,vermont-vista,90061,4,1
3467,-118.280741,33.928561,2017-04-06 19:31:00,I105 E / I110,130,1125-Traffic Hazard,CHP-LA,South LA,0101000020E61000005D6919A9F7915DC0A8AB3B16DBF64040,vermont-vista,90061,4,1
73,-118.361313,33.890806,2017-04-07 09:37:00,I405 S / Inglewood Ave,130,1125-Traffic Hazard,CHP-LA,LAFSP,0101000020E6100000A8A78FC01F975DC0508A56EE05F24040,redondo-beach,90278,5,0
4718,-118.130012,34.033033,2017-04-07 23:00:00,Sr60 E / N Garfield Ave,130,1125-Traffic Hazard,CHP-LA,East LA,0101000020E61000009B05DA1D52885DC02A58E36C3A044140,montebello,90640,5,3
167,-118.092852,34.036111,2017-04-09 17:56:00,Sr60 W / Paramount Blvd,130,1182-Trfc Collision-No Inj,CHP-LA,LAFSP,0101000020E610000091D78349F1855DC04F0306499F044140,montebello,90640,0,0
4466,-118.12501,34.033081,2017-04-07 22:08:00,Sr60 E / N Wilcox Ave,130,CFIRE-Car Fire,CHP-LA,East LA,0101000020E6100000126BF12900885DC03B8F8AFF3B044140,montebello,90640,5,3
2112,-118.472957,34.233558,2017-04-08 12:42:00,I405 S / NORDHOFF ST,130,1179-Trfc Collision-1141 Enrt,CHP-LA,West Valley,0101000020E610000084DA6FED449E5DC00EDC813AE51D4140,north-hills,91343,6,10
918,-118.472957,34.233558,2017-04-03 08:16:00,I405 S / NORDHOFF ST,130,1183-Trfc Collision-Unkn Inj,CHP-LA,West Valley,0101000020E610000084DA6FED449E5DC00EDC813AE51D4140,north-hills,91343,1,10
1230,-118.472183,34.250087,2017-04-03 09:43:00,I405 N / Lassen St,130,1179-Trfc Collision-1141 Enrt,CHP-LA,West Valley,0101000020E61000008AAE0B3F389E5DC0CF13CFD902204140,north-hills,91343,1,10
4719,-118.166545,34.046564,2017-04-07 23:00:00,1601 Corporate Center Dr,130,20002-Hit and Run No Injuries,CHP-LA,LA,0101000020E6100000FD135CACA88A5DC0E29524CFF5054140,monterey-park,91754,5,11
3538,-118.150117,34.035189,2017-04-07 18:21:00,Sr60 E / S Atlantic Blvd,130,1125-Traffic Hazard,CHP-LA,East LA,0101000020E6100000B66455849B895DC0E816BA1281044140,monterey-park,91754,5,3
2237,-118.072582,33.964827,2017-04-07 13:39:00,Slauson Ave / Duchess Dr,130,1183-Trfc Collision-Unkn Inj,CHP-LA,Santa Fe Springs,0101000020E6100000D011F92EA5845DC01EA67D737FFB4040,west-whittier-los-nietos,90606,5,5
3503,-118.075682,33.976322,2017-04-08 18:25:00,7620 Norwalk Blvd,130,ANIMAL-Live or Dead Animal,CHP-LA,Santa Fe Springs,0101000020E610000056B950F9D7845DC0C22E8A1EF8FC4040,west-whittier-los-nietos,90606,6,5
778,-117.880723,34.719535,2017-04-03 07:35:00,140th St E / E Avenue H,130,1183-Trfc Collision-Unkn Inj,CHP-LA,Antelope Valley,0101000020E6100000717500C45D785DC0E7A90EB9195C4140,northeast-antelope-valley,93535,1,13
2546,-118.170419,34.773033,2017-04-04 15:53:00,Sr14 N / W Ave D Ofr,130,1183-Trfc Collision-Unkn Inj,CHP-LA,Antelope Valley,0101000020E61000007DE71725E88A5DC048DDCEBEF2624140,northwest-antelope-valley,93536,2,13
3997,-118.103969,33.924686,2017-04-09 21:14:00,I105 E / I605,130,20002-Hit and Run No Injuries,CHP-LA,Santa Fe Springs,0101000020E61000000FB3976DA7865DC0D788601C5CF64040,norwalk,90650,0,5
479,-118.10397,33.924683,2017-04-05 05:42:00,I605 N / Firestone Blvd,130,1182-Trfc Collision-No Inj,CHP-LA,Santa Fe Springs,0101000020E6100000F770C971A7865DC0661536035CF64040,norwalk,90650,3,5
4563,-118.471249,33.998352,2017-04-08 22:55:00,6th Ave / Flower Ave,130,1179-Trfc Collision-1141 Enrt,CHP-LA,LA,0101000020E610000074D190F1289E5DC0B7F292FFC9FF4040,venice,90291,6,11
3165,-118.418629,34.280261,2017-04-04 17:59:00,Sr118 E / Glenoaks Blvd,130,20002-Hit and Run No Injuries,CHP-LA,Altadena,0101000020E6100000100A4AD1CA9A5DC010ACAA97DF234140,pacoima,91331,2,9
302,-118.05284,34.018006,2017-04-04 02:57:00,I605 S / Rose Hills Rd,130,1125-Traffic Hazard,CHP-LA,Santa Fe Springs,0101000020E6100000EBFA05BB61835DC0DE9046054E024140,pico-rivera,90601,2,5
4174,-118.069315,33.993558,2017-04-03 21:09:00,I605 S / Whittier Blvd,130,1125-Traffic Hazard,CHP-LA,Santa Fe Springs,0101000020E6100000D2872EA86F845DC0EF5696E82CFF4040,whittier,90606,1,5
161,-118.064137,34.041403,2017-04-07 01:16:00,Sr60 W / Rosemead Blvd,130,SIG Alert,CHP-LA,East LA,0101000020E6100000AC5D13D21A845DC0687A89B14C054140,whittier-narrows,91733,5,3
3182,-118.594184,34.168855,2017-04-07 16:59:00,Canoga Ave Onr / Us101 S,130,1125-Traffic Hazard,CHP-LA,West Valley,0101000020E61000009EF3531C07A65DC00F62670A9D154140,woodland-hills,91367,5,10
3804,-118.605709,34.170778,2017-04-04 20:39:00,Us101 W / Topanga Canyon Blvd,130,1125-Traffic Hazard,CHP-LA,West Valley,0101000020E61000002579AEEFC3A65DC02B70B20DDC154140,woodland-hills,91367,2,10
2780,-118.619482,34.16722,2017-04-04 16:41:00,22631 Ventura Blvd,130,20002-Hit and Run No Injuries,CHP-LA,West Valley,0101000020E61000007C9DD497A5A75DC05A9E077767154140,woodland-hills,91364,2,10
2743,-118.597355,34.169519,2017-04-08 15:25:00,Us101 W / Canoga Ave,130,1125-Traffic Hazard,CHP-LA,West Valley,0101000020E6100000894677103BA65DC07B8670CCB2154140,woodland-hills,91367,6,10
589,-118.630377,34.162153,2017-04-04 06:28:00,Us101 N / Woodlake Dr,130,1125-Traffic Hazard,CHP-LA,West Valley,0101000020E6100000A3C9C51858A85DC062F9F36DC1144140,woodland-hills,91364,2,10
1524,-118.142413,34.601736,2017-04-07 10:45:00,Sr14 N / Rancho Vista Blvd,130,1125-Traffic Hazard,CHP-LA,Antelope Valley,0101000020E61000009D616A4B1D895DC0B5696CAF054D4140,palmdale,93551,5,13
4714,-117.905669,33.988336,2017-04-07 22:59:00,Colima Rd / Fullerton Rd,130,1179-Trfc Collision-1141 Enrt,CHP-LA,Santa Fe Springs,0101000020E610000010001C7BF6795DC0CFBA46CB81FE4040,rowland-heights,91748,5,5
3822,-118.774674,34.04741,2017-04-09 20:31:00,Latigo Canyon Rd / Ocean View Dr,130,1125-Traffic Hazard,CHP-LA,West Valley,0101000020E6100000F0C3414294B15DC06EC0E78711064140,unincorporated-santa-monica-mountains,90265,0,10
2500,-118.934979,34.04515,2017-04-09 15:22:00,Mulholland Hwy / Sr1,130,1179-Trfc Collision-1141 Enrt,CHP-LA,West Valley,0101000020E610000098DC28B2D6BB5DC00BB5A679C7054140,unincorporated-santa-monica-mountains,90265,0,10
218,-118.39622,33.931153,2017-04-03 17:30:00,I105 E / Sepulveda Blvd,130,1182-Trfc Collision-No Inj,CHP-LA,LAFSP,0101000020E61000005A8121AB5B995DC04149810530F74040,westchester,90045,1,0
140,-118.375208,33.970547,2017-04-04 13:31:00,I405 N / LA TIJERA BLVD OFR,130,1183-Trfc Collision-Unkn Inj,CHP-LA,LAFSP,0101000020E6100000A54C6A6803985DC08E1D54E23AFC4040,westchester,90045,2,0
372,-118.379967,33.930877,2017-04-09 02:25:00,I105 E / E Imperial Hwy,130,1179-Trfc Collision-1141 Enrt,CHP-LA,West LA,0101000020E6100000CAA31B6151985DC09FCC3FFA26F74040,westchester,90245,0,6
3871,-118.387374,33.931808,2017-04-06 21:30:00,5927 W Imperial Hwy,130,20002-Hit and Run No Injuries,CHP-LA,West LA,0101000020E6100000865451BCCA985DC05A130B7C45F74040,westchester,90045,4,6
2362,-118.239124,33.923287,2017-04-06 15:42:00,E 120th St / Wilmington Ave,130,1182-Trfc Collision-No Inj,CHP-LA,South LA,0101000020E610000014ECBFCE4D8F5DC036E9B6442EF64040,willowbrook,90059,4,1
4510,-118.269627,33.906664,2017-04-09 23:32:00,E 138th St / S San Pedro St,130,20002-Hit and Run No Injuries,CHP-LA,South LA,0101000020E610000097C79A9141915DC0F33AE2900DF44040,willowbrook,90061,0,1
4178,-118.278307,33.916411,2017-04-03 02:04:00,W El Segundo Blvd / S Broadway,130,20002-Hit and Run No Injuries,CHP-LA,South LA,0101000020E6100000DECF29C8CF915DC0EA58A5F44CF54040,willowbrook,90061,1,1
1814,-118.228826,33.910821,2017-04-07 11:53:00,S Willowbrook Ave / E Stockwell St,130,1179-Trfc Collision-1141 Enrt,CHP-LA,South LA,0101000020E61000005E9ECE15A58E5DC048C153C895F44040,willowbrook,90222,5,1
2728,-117.806496,34.065089,2017-04-07 15:28:00,I10 E / Sr57,130,CFIRE-Car Fire,CHP-LA,Baldwin Park,0101000020E6100000B51666A19D735DC0282A1BD654084140,pomona,91768,5,7
221,-117.750932,34.024669,2017-04-06 15:38:00,Sr60 W Sr71 S Con / Sr71 S,130,1125-Traffic Hazard,CHP-LA,LAFSP,0101000020E6100000466117450F705DC0CE1C925A28034140,pomona,91766,4,0
3525,-117.770929,34.024031,2017-04-07 18:19:00,Sr60 W / Phillips Ranch Rd,130,1125-Traffic Hazard,CHP-LA,Baldwin Park,0101000020E61000006FA296E656715DC08B8BA37213034140,pomona,91766,5,7
3417,-117.800728,34.043378,2017-04-06 19:21:00,Sr57 N / Temple Ave,130,1125-Traffic Hazard,CHP-LA,Baldwin Park,0101000020E6100000753FA7203F735DC0D6AE09698D054140,pomona,91766,4,7
926,-117.770929,34.024031,2017-04-06 09:30:00,SR60 W / Phillips Ranch Rd,130,1125-Traffic Hazard,CHP-LA,Baldwin Park,0101000020E61000006FA296E656715DC08B8BA37213034140,pomona,91766,4,7
4123,-118.55627,34.272247,2017-04-09 21:41:00,Sr118 E / Tampa Ave,130,1125-Traffic Hazard,CHP-LA,West Valley,0101000020E6100000BD6F7CED99A35DC091B75CFDD8224140,porter-ranch,91326,0,10
2358,-118.158126,34.167428,2017-04-08 13:45:00,I210 E / Seco St Ofr,130,1179-Trfc Collision-1141 Enrt,CHP-LA,Altadena,0101000020E61000006DA983BC1E8A5DC0A437DC476E154140,pasadena,91103,6,9
1358,-118.161087,34.146675,2017-04-04 10:17:00,Sr134 E / S Orange Grove Blvd,130,1125-Traffic Hazard,CHP-LA,Altadena,0101000020E6100000E433D93F4F8A5DC00612143FC6124140,pasadena,91105,2,9
99,-118.154638,34.140739,2017-04-03 11:10:00,I710 N / W Del Mar Blvd,130,20001-Hit and Run w/Injuries,CHP-LA,LAFSP,0101000020E6100000012EC896E5895DC0C9224DBC03124140,pasadena,91105,1,0
2685,-118.156739,34.154342,2017-04-04 16:21:00,I210 W / Orange Grove Blvd,130,1125-Traffic Hazard,CHP-LA,Altadena,0101000020E61000007EC00303088A5DC01A33897AC1134140,pasadena,91103,2,9
1108,-118.073425,34.148192,2017-04-08 06:22:00,I210 E / N Rosemead Blvd,130,1125-Traffic Hazard,CHP-LA,Altadena,0101000020E61000005D6DC5FEB2845DC0B1C398F4F7124140,pasadena,91107,6,9
2096,-118.126824,34.152087,2017-04-03 13:23:00,I210 W / Lake Ave Ofr,130,1183-Trfc Collision-Unkn Inj,CHP-LA,Altadena,0101000020E6100000441669E21D885DC0C992399677134140,pasadena,91106,1,9
1741,-118.161182,34.146881,2017-04-04 12:18:00,Sr134 W / N Orange Grove Blvd,130,1125-Traffic Hazard,CHP-LA,Altadena,0101000020E61000000DAD4ECE508A5DC0AFB321FFCC124140,pasadena,91105,2,9
79,-118.141613,34.151692,2017-04-08 13:47:00,I210 E / Sr134 E,130,1179-Trfc Collision-1141Enrt,CHP-LA,LAFSP,0101000020E61000000FECF82F10895DC04C88B9A46A134140,pasadena,91101,6,0
1301,-118.121278,34.152467,2017-04-09 09:47:00,I210 W / N Hill Ave,130,1182-Trfc Collision-No Inj,CHP-LA,Altadena,0101000020E61000005BEECC04C3875DC0105CE50984134140,pasadena,91106,0,9
4141,-117.839494,34.0687,2017-04-04 22:16:00,I10 E / Via Verde,130,1125-Traffic Hazard,CHP-LA,Baldwin Park,0101000020E61000000BCC0A45BA755DC01B9E5E29CB084140,ramona,91724,2,7
66,-117.839494,34.0687,2017-04-09 12:59:00,I10 E / Via Verde,130,1125-Traffic Hazard,CHP-LA,LAFSP,0101000020E61000000BCC0A45BA755DC01B9E5E29CB084140,ramona,91724,0,0
4799,-118.579258,34.040094,2017-04-07 23:28:00,PCH / TOPANGA CANY,130,1182-Trfc Collision-No Inj,CHP-LA,West Valley,0101000020E6100000927C259012A55DC00762D9CC21054140,topanga,90265,5,10
1149,-118.604282,34.143355,2017-04-08 06:49:00,21931 Woodland Crest Dr,130,1179-Trfc Collision-1141 Enrt,CHP-LA,West Valley,0101000020E6100000F0E3688EACA65DC0EA5BE67459124140,topanga,91364,6,10
516,-118.598911,34.13569,2017-04-06 06:07:00,N Topanga Canyon Blvd / Viewridge Rd,130,1182-Trfc Collision-No Inj,CHP-LA,West Valley,0101000020E6100000BE8DCD8E54A65DC07732384A5E114140,topanga,90290,4,10
1911,-118.592176,34.118204,2017-04-04 13:12:00,N Topanga Canyon Blvd / Tiger Trl,130,CLOSURE of a Road,CHP-LA,West Valley,0101000020E6100000785E2A36E6A55DC0D120054F210F4140,topanga,90290,2,10
4,-118.058409,34.072628,2017-04-03 05:55:00,I10 W / Temple City Blvd,130,1125-Traffic Hazard,CHP-LA,LAFSP,0101000020E6100000B2321AF9BC835DC00F63D2DF4B094140,rosemead,91770,1,0
1395,-118.058409,34.072628,2017-04-06 11:10:00,I10 W / Temple City Blvd,130,1183-Trfc Collision-Unkn Inj,CHP-LA,East LA,0101000020E6100000B2321AF9BC835DC00F63D2DF4B094140,rosemead,91770,4,3
1854,-118.080014,34.038376,2017-04-09 12:40:00,Town Center Dr / San Gabriel Blvd,130,20002-Hit and Run No Injuries,CHP-LA,Santa Fe Springs,0101000020E6100000374E0AF31E855DC0C4793881E9044140,rosemead,91770,0,5
1317,-118.349962,34.034375,2017-04-07 09:51:00,I10 W / S La Brea Ave,130,1182-Trfc Collision-No Inj,CHP-LA,Central LA,0101000020E6100000F03504C765965DC06666666666044140,west-adams,90016,5,2
3182,-118.451484,34.055962,2017-04-06 18:26:00,Wilshire Blvd / S Sepulveda Blvd,130,1182-Trfc Collision-No Inj,CHP-LA,West LA,0101000020E6100000B5AA251DE59C5DC0CDE847C329074140,veterans-administration,90073,4,6
2283,-118.452239,34.055739,2017-04-07 13:45:00,I405 S / Wilshire Blvd,130,1183-Trfc Collision-Unkn Inj,CHP-LA,West LA,0101000020E610000072BED87BF19C5DC04E0E9F7422074140,veterans-administration,90073,5,6
3982,-118.448664,34.049477,2017-04-08 20:34:00,I405 S / Santa Monica Blvd Ofr,130,1125-Traffic Hazard,CHP-LA,West LA,0101000020E61000001FB935E9B69C5DC0BD73284355064140,veterans-administration,90073,6,6
1428,-118.273387,34.074767,2017-04-03 10:33:00,Us101 S / N Rampart Blvd,130,SIG Alert,CHP-LA,Central LA,0101000020E6100000B409302C7F915DC0F7E80DF791094140,westlake,90026,1,2
3700,-117.806572,34.065322,2017-04-04 20:14:00,I10 W / Sr57,130,1125-Traffic Hazard,CHP-LA,Baldwin Park,0101000020E6100000A3772AE09E735DC0CADAA6785C084140,san-dimas,91773,2,7
519,-117.808236,34.070997,2017-04-03 05:32:00,La05782 Sr57 N / So I10 W,130,1125-Traffic Hazard,CHP-LA,Baldwin Park,0101000020E6100000CBDC7C23BA735DC09B8E006E16094140,san-dimas,91773,1,7
1128,-117.808974,34.072608,2017-04-06 09:45:00,Sr71 N / Sr57 N,130,ANIMAL-Live or Dead Animal,CHP-LA,Baldwin Park,0101000020E61000001D54E23AC6735DC0C8B60C384B094140,san-dimas,91773,4,7
3311,-117.81199,34.064017,2017-04-07 17:45:00,I10 W / KELLOGG DR,130,1125-Traffic Hazard,CHP-LA,Baldwin Park,0101000020E610000075ABE7A4F7735DC0ABB184B531084140,san-dimas,91768,5,7
2063,-117.806572,34.065322,2017-04-03 13:19:00,I10 W / SR57,130,1125-Traffic Hazard,CHP-LA,Baldwin Park,0101000020E6100000A3772AE09E735DC0CADAA6785C084140,san-dimas,91773,1,7
16,-117.806665,34.065284,2017-04-06 06:34:00,Sr57 S / I10 W,130,1182-Trfc Collision-No Inj,CHP-LA,LAFSP,0101000020E6100000FB743C66A0735DC0DE79E2395B084140,san-dimas,91773,4,0
1580,-118.25957,33.895235,2017-04-03 11:13:00,E Compton Blvd / E Redondo Beach Blvd,130,1179-Trfc Collision-1141 Enrt,CHP-LA,South LA,0101000020E610000074417DCB9C905DC0069E7B0F97F24040,west-compton,90220,1,1
452,-118.099592,34.07175,2017-04-03 04:39:00,I10 E / Del Mar Ave,130,1183-Trfc Collision-Unkn Inj,CHP-LA,East LA,0101000020E61000005DBC1FB75F865DC077BE9F1A2F094140,san-gabriel,91776,1,3
4291,-117.916551,34.072142,2017-04-09 22:27:00,I10 E / S Lark Ellen Ave,130,1125-Traffic Hazard,CHP-LA,Baldwin Park,0101000020E61000006E8786C5A87A5DC08255F5F23B094140,west-covina,91790,0,7
1510,-117.876992,34.071745,2017-04-06 11:47:00,I10 E / Grand Ave Ofr,130,1125-Traffic Hazard,CHP-LA,Baldwin Park,0101000020E6100000A1B60DA320785DC06553AEF02E094140,west-covina,91791,4,7
3206,-118.298905,33.743342,2017-04-03 17:23:00,W 1st St / N Bandini St,130,1179-Trfc Collision-1141 Enrt,CHP-LA,South LA,0101000020E610000019E76F4221935DC022DFA5D425DF4040,san-pedro,90731,1,1
679,-118.218832,34.496728,2017-04-03 06:51:00,Sr14 N / Red Rover Mine Rd Oc,130,1125-Traffic Hazard,CHP-LA,Antelope Valley,0101000020E61000005FD4EE57018E5DC0F68079C8943F4140,acton,93510,1,13
866,-118.198285,34.491481,2017-04-09 05:32:00,Sr14 N / Crown Valley Rd,130,1179-Trfc Collision-1141 Enrt,CHP-LA,Antelope Valley,0101000020E6100000659291B3B08C5DC07DCD72D9E83E4140,acton,93510,0,13
2258,-118.555028,34.362461,2017-04-08 13:17:00,I5 N / Calgrove Blvd,130,1179-Trfc Collision-1141 Enrt,CHP-LA,Newhall,0101000020E61000005117299485A35DC0A8893E1F652E4140,santa-clarita,91321,6,4
2188,-118.466373,34.415672,2017-04-05 14:35:00,Soledad Canyon Rd / Crossglade Ave,130,1183-Trfc Collision-Unkn Inj,CHP-LA,LA,0101000020E610000032AF230ED99D5DC074EE76BD34354140,santa-clarita,91351,3,11
1628,-118.555028,34.362461,2017-04-04 11:44:00,I5 N / Calgrove Blvd,130,1183-Trfc Collision-Unkn Inj,CHP-LA,Newhall,0101000020E61000005117299485A35DC0A8893E1F652E4140,santa-clarita,91321,2,4
2333,-118.472767,34.392544,2017-04-09 14:42:00,Sr14 S / Golden Valley Rd,130,1125-Traffic Hazard,CHP-LA,Newhall,0101000020E610000031E884D0419E5DC0DA1EBDE13E324140,santa-clarita,91321,0,4
374,-118.505532,34.342119,2017-04-08 01:42:00,I5 Trk Rte N Sr14 Con / Sr14 N,130,1183-Trfc Collision-Unkn Inj,CHP-LA,Newhall,0101000020E610000037C5E3A25AA05DC08C2B2E8ECA2B4140,santa-clarita,91321,6,4
2809,-118.423629,34.425113,2017-04-09 16:45:00,Sr14 N / Sand Canyon Rd,130,1125-Traffic Hazard,CHP-LA,Newhall,0101000020E6100000C828CFBC1C9B5DC05F0D501A6A364140,santa-clarita,91387,0,4
1154,-118.565791,34.378846,2017-04-08 06:53:00,I5 S / Lyons Ave,130,1125-Traffic Hazard,CHP-LA,Newhall,0101000020E6100000C05774EB35A45DC0371C96067E304140,unincorporated-santa-susana-mountains,91355,6,4
1984,-118.565791,34.378846,2017-04-03 13:08:00,I5 S / Lyons Ave,130,1125-Traffic Hazard,CHP-LA,Newhall,0101000020E6100000C05774EB35A45DC0371C96067E304140,unincorporated-santa-susana-mountains,91355,1,4
